{
  "norad_id": 53272,
  "name": "STARLINK-4122",
  "history": [
    {
      "epoch": "2026-03-28T17:24:11.295936Z",
      "apogee_km": 540.5904241092358,
      "perigee_km": 538.9185080997077,
      "latitude_deg": 3.314953052218443e-05,
      "longitude_deg": 11.478600918762998,
      "height_km": 540.6575086400084,
      "semi_major_axis_km": 6917.891466104472,
      "eccentricity": 0.00012084,
      "inclination_deg": 53.2166,
      "raan_deg": 98.6671,
      "arg_perigee_deg": 90.4948,
      "mean_anomaly_deg": 269.6183,
      "mean_motion_rev_day": 15.08836376
    },
    {
      "epoch": "2026-03-29T04:31:53.146848Z",
      "apogee_km": 540.5910705449805,
      "perigee_km": 538.9058736439783,
      "latitude_deg": 2.856870444298782e-05,
      "longitude_deg": -157.98450400787897,
      "height_km": 540.6669589418825,
      "semi_major_axis_km": 6917.885472094479,
      "eccentricity": 0.0001218,
      "inclination_deg": 53.2164,
      "raan_deg": 96.5854,
      "arg_perigee_deg": 91.5435,
      "mean_anomaly_deg": 268.5697,
      "mean_motion_rev_day": 15.08838337
    },
    {
      "epoch": "2026-03-30T04:22:39.939744Z",
      "apogee_km": 540.5699142504509,
      "perigee_km": 538.9110072353642,
      "latitude_deg": 3.918177365494162e-05,
      "longitude_deg": -161.1193999236104,
      "height_km": 540.6319405794695,
      "semi_major_axis_km": 6917.877460742907,
      "eccentricity": 0.0001199,
      "inclination_deg": 53.2166,
      "raan_deg": 92.1248,
      "arg_perigee_deg": 89.699,
      "mean_anomaly_deg": 270.414,
      "mean_motion_rev_day": 15.08840958
    },
    {
      "epoch": "2026-03-30T05:58:03.056736Z",
      "apogee_km": 540.5613857173794,
      "perigee_km": 538.9129946553421,
      "latitude_deg": 2.9538914611922694e-05,
      "longitude_deg": 174.67158327673593,
      "height_km": 540.6234764209297,
      "semi_major_axis_km": 6917.8741901863605,
      "eccentricity": 0.00011914,
      "inclination_deg": 53.2165,
      "raan_deg": 91.8274,
      "arg_perigee_deg": 89.3359,
      "mean_anomaly_deg": 270.777,
      "mean_motion_rev_day": 15.08842028
    },
    {
      "epoch": "2026-03-30T09:08:49.184448Z",
      "apogee_km": 540.5663709680921,
      "perigee_km": 538.8958441774748,
      "latitude_deg": -3.851816839795394e-05,
      "longitude_deg": 126.25405742580418,
      "height_km": 540.6245606408812,
      "semi_major_axis_km": 6917.868107572783,
      "eccentricity": 0.00012074,
      "inclination_deg": 53.2165,
      "raan_deg": 91.2327,
      "arg_perigee_deg": 89.8371,
      "mean_anomaly_deg": 270.2759,
      "mean_motion_rev_day": 15.08844018
    },
    {
      "epoch": "2026-03-30T17:05:45.318912Z",
      "apogee_km": 540.5993517403949,
      "perigee_km": 538.8976902599397,
      "latitude_deg": 1.1478343408499585e-06,
      "longitude_deg": 5.20694290132948,
      "height_km": 540.6191337453141,
      "semi_major_axis_km": 6917.8855210001675,
      "eccentricity": 0.00012299,
      "inclination_deg": 53.2164,
      "raan_deg": 89.7459,
      "arg_perigee_deg": 88.305,
      "mean_anomaly_deg": 271.8083,
      "mean_motion_rev_day": 15.08838321
    },
    {
      "epoch": "2026-03-31T07:24:13.755456Z",
      "apogee_km": 540.6384561355826,
      "perigee_km": 538.8586225440213,
      "latitude_deg": -3.504676690368533e-05,
      "longitude_deg": 147.32472662059064,
      "height_km": 540.6137216605116,
      "semi_major_axis_km": 6917.885539339802,
      "eccentricity": 0.00012864,
      "inclination_deg": 53.2165,
      "raan_deg": 87.0698,
      "arg_perigee_deg": 88.0336,
      "mean_anomaly_deg": 272.0803,
      "mean_motion_rev_day": 15.08838315
    },
    {
      "epoch": "2026-04-01T16:47:19.632192Z",
      "apogee_km": 540.7264131174534,
      "perigee_km": 538.7658850330063,
      "latitude_deg": 6.210524149402519e-05,
      "longitude_deg": -1.065657534970404,
      "height_km": 540.5862998057868,
      "semi_major_axis_km": 6917.88314907523,
      "eccentricity": 0.0001417,
      "inclination_deg": 53.2171,
      "raan_deg": 80.8249,
      "arg_perigee_deg": 86.7579,
      "mean_anomaly_deg": 273.3576,
      "mean_motion_rev_day": 15.08839097
    },
    {
      "epoch": "2026-04-02T05:30:24.532704Z",
      "apogee_km": 540.6279607805182,
      "perigee_km": 538.8585053745028,
      "latitude_deg": 3.4810031122388846e-05,
      "longitude_deg": 165.26229305439043,
      "height_km": 540.6073720954768,
      "semi_major_axis_km": 6917.880233077511,
      "eccentricity": 0.00012789,
      "inclination_deg": 53.2164,
      "raan_deg": 78.4456,
      "arg_perigee_deg": 87.9551,
      "mean_anomaly_deg": 272.1588,
      "mean_motion_rev_day": 15.08840051
    },
    {
      "epoch": "2026-04-02T22:59:38.952672Z",
      "apogee_km": 540.632950048449,
      "perigee_km": 538.842604056148,
      "latitude_deg": 5.053315090857848e-05,
      "longitude_deg": -101.03785743462653,
      "height_km": 540.616679415848,
      "semi_major_axis_km": 6917.874777052298,
      "eccentricity": 0.0001294,
      "inclination_deg": 53.2166,
      "raan_deg": 75.1737,
      "arg_perigee_deg": 88.9244,
      "mean_anomaly_deg": 271.1897,
      "mean_motion_rev_day": 15.08841836
    },
    {
      "epoch": "2026-04-03T08:31:57.544032Z",
      "apogee_km": 540.6394523052395,
      "perigee_km": 538.8192233144337,
      "latitude_deg": -7.085325144186794e-05,
      "longitude_deg": 113.70885613509512,
      "height_km": 540.6235175294594,
      "semi_major_axis_km": 6917.866337809836,
      "eccentricity": 0.00013156,
      "inclination_deg": 53.2166,
      "raan_deg": 73.3897,
      "arg_perigee_deg": 89.9046,
      "mean_anomaly_deg": 270.2096,
      "mean_motion_rev_day": 15.08844597
    },
    {
      "epoch": "2026-04-04T14:44:18.118176Z",
      "apogee_km": 540.7306127887023,
      "perigee_km": 538.7853007268614,
      "latitude_deg": -1.305855243856008e-05,
      "longitude_deg": 13.732368238714788,
      "height_km": 540.6856094940578,
      "semi_major_axis_km": 6917.894956757782,
      "eccentricity": 0.0001406,
      "inclination_deg": 53.2171,
      "raan_deg": 67.7394,
      "arg_perigee_deg": 91.8878,
      "mean_anomaly_deg": 268.2275,
      "mean_motion_rev_day": 15.08835234
    },
    {
      "epoch": "2026-04-05T14:35:05.186688Z",
      "apogee_km": 540.716454566882,
      "perigee_km": 538.78221354788,
      "latitude_deg": 6.2344267038331e-06,
      "longitude_deg": 10.597625154282754,
      "height_km": 540.7155276728166,
      "semi_major_axis_km": 6917.886334057381,
      "eccentricity": 0.0001398,
      "inclination_deg": 53.2175,
      "raan_deg": 63.2801,
      "arg_perigee_deg": 94.182,
      "mean_anomaly_deg": 265.9332,
      "mean_motion_rev_day": 15.08838055
    },
    {
      "epoch": "2026-04-05T14:35:05.187552Z",
      "apogee_km": 540.7165237457457,
      "perigee_km": 538.7821443690164,
      "latitude_deg": 5.313403987438502e-06,
      "longitude_deg": 10.597620859628112,
      "height_km": 540.7155327175977,
      "semi_major_axis_km": 6917.886334057381,
      "eccentricity": 0.00013981,
      "inclination_deg": 53.2175,
      "raan_deg": 63.2801,
      "arg_perigee_deg": 94.182,
      "mean_anomaly_deg": 265.9332,
      "mean_motion_rev_day": 15.08838055
    },
    {
      "epoch": "2026-04-06T04:53:33.327744Z",
      "apogee_km": 540.6971134855276,
      "perigee_km": 538.8059011254009,
      "latitude_deg": -9.545836673904843e-06,
      "longitude_deg": 152.71615664991484,
      "height_km": 540.7349400330293,
      "semi_major_axis_km": 6917.888507305464,
      "eccentricity": 0.00013669,
      "inclination_deg": 53.2178,
      "raan_deg": 60.6035,
      "arg_perigee_deg": 95.3207,
      "mean_anomaly_deg": 264.7941,
      "mean_motion_rev_day": 15.08837344
    },
    {
      "epoch": "2026-04-07T06:19:41.202912Z",
      "apogee_km": 540.5206988495547,
      "perigee_km": 538.8305388705139,
      "latitude_deg": -1.0666481918087563e-05,
      "longitude_deg": 125.38114014386882,
      "height_km": 540.5771769087199,
      "semi_major_axis_km": 6917.812618860034,
      "eccentricity": 0.00012216,
      "inclination_deg": 53.218,
      "raan_deg": 55.8459,
      "arg_perigee_deg": 90.3788,
      "mean_anomaly_deg": 269.7344,
      "mean_motion_rev_day": 15.08862172
    },
    {
      "epoch": "2026-04-07T20:38:11.812416Z",
      "apogee_km": 540.5008270563594,
      "perigee_km": 539.0356147305729,
      "latitude_deg": 8.587667664357182e-06,
      "longitude_deg": -92.51201621181144,
      "height_km": 540.7844988443928,
      "semi_major_axis_km": 6917.905220893465,
      "eccentricity": 0.0001059,
      "inclination_deg": 53.219,
      "raan_deg": 53.1679,
      "arg_perigee_deg": 99.4257,
      "mean_anomaly_deg": 260.6855,
      "mean_motion_rev_day": 15.08831876
    },
    {
      "epoch": "2026-04-08T06:10:30.700128Z",
      "apogee_km": 540.5551082023576,
      "perigee_km": 538.9738142863462,
      "latitude_deg": 8.874054533890318e-06,
      "longitude_deg": 122.23384843808552,
      "height_km": 540.7081537480394,
      "semi_major_axis_km": 6917.901461244352,
      "eccentricity": 0.00011429,
      "inclination_deg": 53.2189,
      "raan_deg": 51.3842,
      "arg_perigee_deg": 93.4465,
      "mean_anomaly_deg": 266.6658,
      "mean_motion_rev_day": 15.08833106
    },
    {
      "epoch": "2026-04-09T13:58:12.998496Z",
      "apogee_km": 540.5730127216739,
      "perigee_km": 538.8836700053125,
      "latitude_deg": 1.9724892602143626e-05,
      "longitude_deg": -1.9441683361980633,
      "height_km": 540.8766030055959,
      "semi_major_axis_km": 6917.865341363493,
      "eccentricity": 0.0001221,
      "inclination_deg": 53.2189,
      "raan_deg": 45.4382,
      "arg_perigee_deg": 107.3675,
      "mean_anomaly_deg": 252.7451,
      "mean_motion_rev_day": 15.08844923
    }
  ]
}